{
    "links": {
        "self": "http://www.neowsapp.com/rest/v1/neo/3364895?api_key=iIulBulltgU6a56xZRHN4H3l9WmuAYTsLGpBGhQ2"
    },
    "id": "3364895",
    "neo_reference_id": "3364895",
    "name": "(2006 YP44)",
    "designation": "2006 YP44",
    "nasa_jpl_url": "http://ssd.jpl.nasa.gov/sbdb.cgi?sstr=3364895",
    "absolute_magnitude_h": 23.6,
    "estimated_diameter": {
        "kilometers": {
            "estimated_diameter_min": 0.0506471459,
            "estimated_diameter_max": 0.1132504611
        },
        "meters": {
            "estimated_diameter_min": 50.6471458835,
            "estimated_diameter_max": 113.2504610618
        },
        "miles": {
            "estimated_diameter_min": 0.0314706677,
            "estimated_diameter_max": 0.0703705522
        },
        "feet": {
            "estimated_diameter_min": 166.1651821003,
            "estimated_diameter_max": 371.5566426699
        }
    },
    "is_potentially_hazardous_asteroid": false,
    "close_approach_data": [
        {
            "close_approach_date": "2006-12-26",
            "close_approach_date_full": "2006-Dec-26 00:06",
            "epoch_date_close_approach": 1167091560000,
            "relative_velocity": {
                "kilometers_per_second": "10.9765364947",
                "kilometers_per_hour": "39515.5313807418",
                "miles_per_hour": "24553.4144848837"
            },
            "miss_distance": {
                "astronomical": "0.036401151",
                "lunar": "14.160047739",
                "kilometers": "5445534.65514837",
                "miles": "3383698.330532706"
            },
            "orbiting_body": "Earth"
        }
    ],
    "orbital_data": {
        "orbit_id": "10",
        "orbit_determination_date": "2017-04-06 09:07:16",
        "first_observation_date": "2006-12-29",
        "last_observation_date": "2007-01-20",
        "data_arc_in_days": 22,
        "observations_used": 40,
        "orbit_uncertainty": "8",
        "minimum_orbit_intersection": ".0013251",
        "jupiter_tisserand_invariant": "3.137",
        "epoch_osculation": "2454101.5",
        "eccentricity": ".6263507547547322",
        "semi_major_axis": "2.541170434428254",
        "inclination": "1.98522118528281",
        "ascending_node_longitude": "88.24024576553225",
        "orbital_period": "1479.616336143337",
        "perihelion_distance": ".9495064148637062",
        "perihelion_argument": "333.0633171387931",
        "aphelion_distance": "4.132834453992801",
        "perihelion_time": "2454071.822251760430",
        "mean_anomaly": "7.220783594545411",
        "mean_motion": ".2433063161078299",
        "equinox": "J2000",
        "orbit_class": {
            "orbit_class_type": "APO",
            "orbit_class_description": "Near-Earth asteroid orbits which cross the Earth’s orbit similar to that of 1862 Apollo",
            "orbit_class_range": "a (semi-major axis) > 1.0 AU; q (perihelion) < 1.017 AU"
        }
    },
    "is_sentry_object": false
}